{
  "norad_id": 66812,
  "name": "STARLINK-36054",
  "history": [
    {
      "epoch": "2026-04-14T11:41:48.807744Z",
      "apogee_km": 483.8108118907703,
      "perigee_km": 482.2744565470766,
      "latitude_deg": 4.4580194254821305e-05,
      "longitude_deg": -105.89850521998278,
      "height_km": 482.6789156330459,
      "semi_major_axis_km": 6861.179634218924,
      "eccentricity": 0.00011196,
      "inclination_deg": 42.9961,
      "raan_deg": 272.2179,
      "arg_perigee_deg": 280.4816,
      "mean_anomaly_deg": 79.591,
      "mean_motion_rev_day": 15.27582158
    },
    {
      "epoch": "2026-04-15T19:04:56.265024Z",
      "apogee_km": 484.2379543659963,
      "perigee_km": 481.7734319106203,
      "latitude_deg": -1.6081346875135637e-05,
      "longitude_deg": 134.6434076717065,
      "height_km": 482.6989140682697,
      "semi_major_axis_km": 6861.142693138308,
      "eccentricity": 0.0001796,
      "inclination_deg": 42.9988,
      "raan_deg": 264.8299,
      "arg_perigee_deg": 273.8935,
      "mean_anomaly_deg": 86.1711,
      "mean_motion_rev_day": 15.27594495
    },
    {
      "epoch": "2026-04-16T18:37:16.903776Z",
      "apogee_km": 484.2464206206778,
      "perigee_km": 481.7407357335278,
      "latitude_deg": -2.203095896190977e-05,
      "longitude_deg": 135.05039329956915,
      "height_km": 482.77580344797656,
      "semi_major_axis_km": 6861.1305781771025,
      "eccentricity": 0.0001826,
      "inclination_deg": 42.9975,
      "raan_deg": 259.2896,
      "arg_perigee_deg": 269.7502,
      "mean_anomaly_deg": 90.314,
      "mean_motion_rev_day": 15.27598541
    },
    {
      "epoch": "2026-04-17T10:18:51.255360Z",
      "apogee_km": 483.94188507190484,
      "perigee_km": 482.1622298541797,
      "latitude_deg": -2.412821711576542e-06,
      "longitude_deg": -104.67489994906516,
      "height_km": 482.84324068441805,
      "semi_major_axis_km": 6861.1890574630415,
      "eccentricity": 0.00012969,
      "inclination_deg": 43.002,
      "raan_deg": 255.6019,
      "arg_perigee_deg": 269.0762,
      "mean_anomaly_deg": 90.9941,
      "mean_motion_rev_day": 15.27579011
    },
    {
      "epoch": "2026-04-18T02:00:25.355520Z",
      "apogee_km": 483.9545515170048,
      "perigee_km": 482.1281058459099,
      "latitude_deg": -8.037876723420041e-06,
      "longitude_deg": 15.59503008665135,
      "height_km": 482.82030011802107,
      "semi_major_axis_km": 6861.178328681457,
      "eccentricity": 0.0001331,
      "inclination_deg": 43.0026,
      "raan_deg": 251.9084,
      "arg_perigee_deg": 269.8722,
      "mean_anomaly_deg": 90.1977,
      "mean_motion_rev_day": 15.27582594
    },
    {
      "epoch": "2026-04-19T15:40:09.448896Z",
      "apogee_km": 484.1974909662058,
      "perigee_km": 481.78923420893716,
      "latitude_deg": 1.3738942566711525e-05,
      "longitude_deg": 160.2495965096583,
      "height_km": 482.90573417437486,
      "semi_major_axis_km": 6861.130362587571,
      "eccentricity": 0.0001755,
      "inclination_deg": 43.0003,
      "raan_deg": 243.0434,
      "arg_perigee_deg": 263.5445,
      "mean_anomaly_deg": 96.5207,
      "mean_motion_rev_day": 15.27598613
    },
    {
      "epoch": "2026-04-20T08:55:53.594976Z",
      "apogee_km": 484.56585367217576,
      "perigee_km": 481.7303589891326,
      "latitude_deg": 2.699212543850655e-05,
      "longitude_deg": -103.45666855423835,
      "height_km": 482.5844050612854,
      "semi_major_axis_km": 6861.285106330653,
      "eccentricity": 0.00020663,
      "inclination_deg": 42.9961,
      "raan_deg": 238.98,
      "arg_perigee_deg": 283.8963,
      "mean_anomaly_deg": 76.1659,
      "mean_motion_rev_day": 15.27546935
    },
    {
      "epoch": "2026-04-21T14:44:51.556704Z",
      "apogee_km": 483.904965686027,
      "perigee_km": 482.0126754587136,
      "latitude_deg": 2.893408077749584e-05,
      "longitude_deg": 161.06451958130722,
      "height_km": 482.71947399925864,
      "semi_major_axis_km": 6861.09582057237,
      "eccentricity": 0.0001379,
      "inclination_deg": 42.9984,
      "raan_deg": 231.9672,
      "arg_perigee_deg": 270.9598,
      "mean_anomaly_deg": 89.1096,
      "mean_motion_rev_day": 15.27610149
    },
    {
      "epoch": "2026-04-22T18:59:41.468352Z",
      "apogee_km": 484.64976759601905,
      "perigee_km": 481.4222718075507,
      "latitude_deg": -3.7792137634799154e-05,
      "longitude_deg": 89.54990910104765,
      "height_km": 482.46060354524303,
      "semi_major_axis_km": 6861.173019701784,
      "eccentricity": 0.0002352,
      "inclination_deg": 43.0008,
      "raan_deg": 225.3207,
      "arg_perigee_deg": 282.6334,
      "mean_anomaly_deg": 77.4254,
      "mean_motion_rev_day": 15.27584367
    },
    {
      "epoch": "2026-04-23T13:49:34.265856Z",
      "apogee_km": 484.0639855121535,
      "perigee_km": 481.9749005983722,
      "latitude_deg": 2.8291853552306238e-05,
      "longitude_deg": 161.8757130951956,
      "height_km": 482.49261922022873,
      "semi_major_axis_km": 6861.156443055263,
      "eccentricity": 0.00015224,
      "inclination_deg": 42.9986,
      "raan_deg": 220.8898,
      "arg_perigee_deg": 286.8888,
      "mean_anomaly_deg": 73.1797,
      "mean_motion_rev_day": 15.27589903
    },
    {
      "epoch": "2026-04-24T14:56:04.003584Z",
      "apogee_km": 483.9071220609776,
      "perigee_km": 482.0765728844717,
      "latitude_deg": 1.048864050578217e-06,
      "longitude_deg": 138.31161590902767,
      "height_km": 482.4380203395169,
      "semi_major_axis_km": 6861.128847472724,
      "eccentricity": 0.0001334,
      "inclination_deg": 43.0001,
      "raan_deg": 214.9808,
      "arg_perigee_deg": 291.1643,
      "mean_anomaly_deg": 68.9066,
      "mean_motion_rev_day": 15.27599119
    },
    {
      "epoch": "2026-04-25T17:36:42.830784Z",
      "apogee_km": 483.86990557511945,
      "perigee_km": 482.0956200044611,
      "latitude_deg": -4.7609677676117395e-05,
      "longitude_deg": 90.77657960823235,
      "height_km": 482.70303415675033,
      "semi_major_axis_km": 6861.11976278979,
      "eccentricity": 0.0001293,
      "inclination_deg": 42.9982,
      "raan_deg": 208.7032,
      "arg_perigee_deg": 273.6288,
      "mean_anomaly_deg": 86.4415,
      "mean_motion_rev_day": 15.27602153
    },
    {
      "epoch": "2026-04-26T17:09:04.275648Z",
      "apogee_km": 483.81240939016607,
      "perigee_km": 482.2767397301486,
      "latitude_deg": 1.1083478622568543e-06,
      "longitude_deg": 91.1804540489249,
      "height_km": 483.0812784552254,
      "semi_major_axis_km": 6861.181574560157,
      "eccentricity": 0.00011191,
      "inclination_deg": 42.9978,
      "raan_deg": 203.1631,
      "arg_perigee_deg": 250.1615,
      "mean_anomaly_deg": 109.9116,
      "mean_motion_rev_day": 15.2758151
    },
    {
      "epoch": "2026-04-27T16:41:25.571040Z",
      "apogee_km": 484.101232720629,
      "perigee_km": 481.93310800279414,
      "latitude_deg": 1.8849603098701505e-05,
      "longitude_deg": 91.58572030594354,
      "height_km": 482.8439389559605,
      "semi_major_axis_km": 6861.154170361711,
      "eccentricity": 0.000158,
      "inclination_deg": 42.9986,
      "raan_deg": 197.6238,
      "arg_perigee_deg": 267.3518,
      "mean_anomaly_deg": 92.7153,
      "mean_motion_rev_day": 15.27590662
    },
    {
      "epoch": "2026-04-28T16:13:46.216704Z",
      "apogee_km": 484.0375489143744,
      "perigee_km": 481.935300697015,
      "latitude_deg": 1.630822231885517e-05,
      "longitude_deg": 91.99437954266014,
      "height_km": 483.02808398313476,
      "semi_major_axis_km": 6861.123424805694,
      "eccentricity": 0.0001532,
      "inclination_deg": 42.9995,
      "raan_deg": 192.0852,
      "arg_perigee_deg": 255.3983,
      "mean_anomaly_deg": 104.6699,
      "mean_motion_rev_day": 15.2760093
    },
    {
      "epoch": "2026-04-29T15:46:07.968288Z",
      "apogee_km": 484.22709091494744,
      "perigee_km": 481.90800377794403,
      "latitude_deg": -3.990704935584761e-05,
      "longitude_deg": 92.39966059044853,
      "height_km": 482.74810427390645,
      "semi_major_axis_km": 6861.204547346445,
      "eccentricity": 0.000169,
      "inclination_deg": 42.9998,
      "raan_deg": 186.5479,
      "arg_perigee_deg": 274.7674,
      "mean_anomaly_deg": 85.2984,
      "mean_motion_rev_day": 15.27573838
    },
    {
      "epoch": "2026-04-30T13:44:18.880800Z",
      "apogee_km": 484.1550517605856,
      "perigee_km": 481.8125279005217,
      "latitude_deg": -1.1292355650485175e-05,
      "longitude_deg": 116.78295869298455,
      "height_km": 482.5850270401904,
      "semi_major_axis_km": 6861.120789830554,
      "eccentricity": 0.00017071,
      "inclination_deg": 43.0,
      "raan_deg": 181.3789,
      "arg_perigee_deg": 278.6285,
      "mean_anomaly_deg": 81.4373,
      "mean_motion_rev_day": 15.2760181
    },
    {
      "epoch": "2026-05-02T04:58:12.715968Z",
      "apogee_km": 483.9085096779081,
      "perigee_km": 482.1616552657106,
      "latitude_deg": 1.0685558585399081e-05,
      "longitude_deg": -122.53631849245627,
      "height_km": 483.08037051071847,
      "semi_major_axis_km": 6861.1720824718095,
      "eccentricity": 0.0001273,
      "inclination_deg": 42.999,
      "raan_deg": 172.1451,
      "arg_perigee_deg": 252.0695,
      "mean_anomaly_deg": 108.0018,
      "mean_motion_rev_day": 15.2758468
    },
    {
      "epoch": "2026-05-03T13:55:29.982432Z",
      "apogee_km": 484.0620753444291,
      "perigee_km": 481.87063893215964,
      "latitude_deg": 2.6300226028607136e-05,
      "longitude_deg": 94.03614565540128,
      "height_km": 482.72557668462036,
      "semi_major_axis_km": 6861.103357138294,
      "eccentricity": 0.0001597,
      "inclination_deg": 42.9996,
      "raan_deg": 164.3929,
      "arg_perigee_deg": 270.9201,
      "mean_anomaly_deg": 89.1468,
      "mean_motion_rev_day": 15.27607632
    }
  ]
}